NORAD_CAT_ID,OBJECT_NAME,OBJECT_TYPE,EPOCH,MEAN_MOTION,ECCENTRICITY,INCLINATION,RA_OF_ASC_NODE,ARG_OF_PERICENTER,MEAN_ANOMALY,BSTAR,MEAN_MOTION_DOT,MEAN_MOTION_DDOT,TLE_LINE0,TLE_LINE1,TLE_LINE2,SEMIMAJOR_AXIS,PERIOD,APOGEE,PERIGEE,DECAYED
53827.0,STARLINK-4764,PAYLOAD,2023-10-21 02:48:54,15.08830608,0.0001586,53.2173,252.3304,104.4491,255.6677,0.00011387,1.524e-05,0.0,0 STARLINK-4764,1 53827U 22114K   23294.11729895  .00001524  00000-0  11387-3 0  9992,2 53827  53.2173 252.3304 0001586 104.4491 255.6677 15.08830608 60867,6917.909,95.438,540.871,538.677,0.0
53827.0,STARLINK-4764,PAYLOAD,2023-10-21 13:56:36,15.08842832,0.0001429,53.2175,250.2492,91.2354,268.8802,0.00038595,5.86e-05,0.0,0 STARLINK-4764,1 53827U 22114K   23294.58097808  .00005860  00000-0  38595-3 0  9992,2 53827  53.2175 250.2492 0001429  91.2354 268.8802 15.08842832 61477,6917.872,95.437,540.725,538.748,0.0
53827.0,STARLINK-4764,PAYLOAD,2023-10-21 21:53:32,15.08851889,0.0001325,53.2171,248.7633,91.1205,268.9939,0.00065838,0.00010209,0.0,0 STARLINK-4764,1 53827U 22114K   23294.91217698  .00010209  00000-0  65838-3 0  9993,2 53827  53.2171 248.7633 0001325  91.1205 268.9939 15.08851889 61521,6917.844,95.437,540.626,538.792,0.0
53827.0,STARLINK-4764,PAYLOAD,2023-10-22 04:15:04,15.08869302,0.0001341,53.2168,247.5763,100.2778,259.8366,0.0010196,0.00015989,0.0,0 STARLINK-4764,1 53827U 22114K   23295.17713127  .00015989  00000-0  10196-2 0  9996,2 53827  53.2168 247.5763 0001341 100.2778 259.8366 15.08869302 61020,6917.791,95.436,540.584,538.728,0.0
53827.0,STARLINK-4764,PAYLOAD,2023-10-22 13:47:22,15.08868467,7.02e-05,53.2168,245.7903,63.3435,296.7629,0.00065073,0.00010092,0.0,0 STARLINK-4764,1 53827U 22114K   23295.57456579  .00010092  00000-0  65073-3 0  9990,2 53827  53.2168 245.7903 0000702  63.3435 296.7629 15.08868467 61624,6917.793,95.436,540.144,539.173,0.0
53827.0,STARLINK-4764,PAYLOAD,2023-10-23 04:05:51,15.08841022,0.0001209,53.2166,243.1163,119.1656,240.9457,0.00042219,6.438e-05,0.0,0 STARLINK-4764,1 53827U 22114K   23296.17073658  .00006438  00000-0  42219-3 0  9996,2 53827  53.2166 243.1163 0001209 119.1656 240.9457 15.08841022 61178,6917.877,95.437,540.579,538.906,0.0
53827.0,STARLINK-4764,PAYLOAD,2023-10-23 13:38:10,15.08842886,0.0001223,53.2171,241.3309,110.5651,249.5473,0.0009347,0.0001462,0.0,0 STARLINK-4764,1 53827U 22114K   23296.56817868  .00014620  00000-0  93470-3 0  9995,2 53827  53.2171 241.3309 0001223 110.5651 249.5473 15.08842886 61770,6917.872,95.437,540.583,538.891,0.0
53827.0,STARLINK-4764,PAYLOAD,2023-10-24 03:56:39,15.08854296,0.0001387,53.2162,238.6527,95.9874,264.1276,0.0010566,0.00016574,0.0,0 STARLINK-4764,1 53827U 22114K   23297.16434233  .00016574  00000-0  10566-2 0  9997,2 53827  53.2162 238.6527 0001387  95.9874 264.1276 15.08854296 61328,6917.837,95.437,540.661,538.742,0.0
53827.0,STARLINK-4764,PAYLOAD,2023-10-24 13:28:57,15.0885285,0.0001299,53.2172,236.8679,112.0117,248.1013,0.00065446,0.00010147,0.0,0 STARLINK-4764,1 53827U 22114K   23297.56178156  .00010147  00000-0  65446-3 0  9998,2 53827  53.2172 236.8679 0001299 112.0117 248.1013 15.08852850 61921,6917.841,95.437,540.605,538.807,0.0
53827.0,STARLINK-4764,PAYLOAD,2023-10-25 05:22:48,15.08858899,0.0001482,53.2164,233.8929,101.1161,258.9998,0.00061837,9.572e-05,0.0,0 STARLINK-4764,1 53827U 22114K   23298.22417632  .00009572  00000-0  61837-3 0  9997,2 53827  53.2164 233.8929 0001482 101.1161 258.9998 15.08858899 61480,6917.823,95.436,540.713,538.662,0.0
53827.0,STARLINK-4764,PAYLOAD,2023-10-25 22:52:03,15.08843276,0.0001576,53.2164,230.6228,95.7252,264.392,0.00010259,1.345e-05,0.0,0 STARLINK-4764,1 53827U 22114K   23298.95282062  .00001345  00000-0  10259-3 0  9996,2 53827  53.2164 230.6228 0001576  95.7252 264.3920 15.08843276 62132,6917.87,95.437,540.826,538.645,0.0
53827.0,STARLINK-4764,PAYLOAD,2023-10-26 02:02:49,15.08843867,0.0001565,53.2166,230.0287,89.0021,271.115,8.7028e-05,1.097e-05,0.0,0 STARLINK-4764,1 53827U 22114K   23299.08530090  .00001097  00000-0  87028-4 0  9991,2 53827  53.2166 230.0287 0001565  89.0021 271.1150 15.08843867 61610,6917.869,95.437,540.816,538.651,0.0
53827.0,STARLINK-4764,PAYLOAD,2023-10-26 05:13:36,15.08845694,0.000156,53.2166,229.4335,88.9589,271.1582,0.00013859,1.919e-05,0.0,0 STARLINK-4764,1 53827U 22114K   23299.21778022  .00001919  00000-0  13859-3 0  9998,2 53827  53.2166 229.4335 0001560  88.9589 271.1582 15.08845694 62179,6917.863,95.437,540.807,538.649,0.0
53827.0,STARLINK-4764,PAYLOAD,2023-10-26 22:42:50,15.08851722,0.0001501,53.2166,226.1628,87.4154,272.701,0.00028413,4.238e-05,0.0,0 STARLINK-4764,1 53827U 22114K   23299.94641674  .00004238  00000-0  28413-3 0  9999,2 53827  53.2166 226.1628 0001501  87.4154 272.7010 15.08851722 62289,6917.845,95.437,540.748,538.671,0.0
53827.0,STARLINK-4764,PAYLOAD,2023-10-27 01:53:36,15.08861673,0.0001542,53.2169,225.5667,90.9954,269.1215,0.0005727,8.844e-05,0.0,0 STARLINK-4764,1 53827U 22114K   23300.07889329  .00008844  00000-0  57270-3 0  9997,2 53827  53.2169 225.5667 0001542  90.9954 269.1215 15.08861673 61765,6917.814,95.436,540.746,538.612,0.0
53827.0,STARLINK-4764,PAYLOAD,2023-10-27 05:04:22,15.08869234,0.0001575,53.2173,224.9715,92.7561,267.3611,0.0007703,0.00012002,0.0,0 STARLINK-4764,1 53827U 22114K   23300.21137093  .00012002  00000-0  77030-3 0  9994,2 53827  53.2173 224.9715 0001575  92.7561 267.3611 15.08869234 62321,6917.791,95.436,540.746,538.566,0.0
53827.0,STARLINK-4764,PAYLOAD,2023-10-27 19:22:51,15.08839639,0.0001547,53.2169,222.2968,87.6124,272.5045,-4.3348e-05,-9.78e-06,0.0,0 STARLINK-4764,1 53827U 22114K   23300.80753845 -.00000978  00000-0 -43348-4 0  9995,2 53827  53.2169 222.2968 0001547  87.6124 272.5045 15.08839639 61878,6917.881,95.438,540.817,538.676,0.0
53827.0,STARLINK-4764,PAYLOAD,2023-10-27 22:33:37,15.08835499,0.0001409,53.217,221.7019,102.112,258.0031,-0.00013505,-2.436e-05,0.0,0 STARLINK-4764,1 53827U 22114K   23300.94001900 -.00002436  00000-0 -13505-3 0  9990,2 53827  53.2170 221.7019 0001409 102.1120 258.0031 15.08835499 62434,6917.894,95.438,540.734,538.784,0.0
53827.0,STARLINK-4764,PAYLOAD,2023-10-28 11:16:43,15.0883483,0.0001429,53.2172,219.3238,100.5401,259.5752,6.8507e-06,-1.79e-06,0.0,0 STARLINK-4764,1 53827U 22114K   23301.46994277 -.00000179  00000-0  68507-5 0  9991,2 53827  53.2172 219.3238 0001429 100.5401 259.5752 15.08834830 62511,6917.896,95.438,540.75,538.773,0.0
53827.0,STARLINK-4764,PAYLOAD,2023-10-28 22:24:25,15.08832652,0.0001535,53.2175,217.2442,105.5698,254.5463,0.0001164,1.565e-05,0.0,0 STARLINK-4764,1 53827U 22114K   23301.93362735  .00001565  00000-0  11640-3 0  9994,2 53827  53.2175 217.2442 0001535 105.5698 254.5463 15.08832652 62580,6917.903,95.438,540.83,538.706,0.0
53827.0,STARLINK-4764,PAYLOAD,2023-10-29 04:45:57,15.08848086,0.0001437,53.2168,216.0537,100.6832,259.4322,0.00052911,8.145e-05,0.0,0 STARLINK-4764,1 53827U 22114K   23302.19858251  .00008145  00000-0  52911-3 0  9993,2 53827  53.2168 216.0537 0001437 100.6832 259.4322 15.08848086 62082,6917.856,95.437,540.715,538.727,0.0
53827.0,STARLINK-4764,PAYLOAD,2023-10-29 11:07:30,15.0884192,0.0001284,53.217,214.862,94.5754,265.5385,0.00039267,5.967e-05,0.0,0 STARLINK-4764,1 53827U 22114K   23302.46354550  .00005967  00000-0  39267-3 0  9994,2 53827  53.2170 214.8620 0001284  94.5754 265.5385 15.08841920 62120,6917.875,95.437,540.628,538.851,0.0
53827.0,STARLINK-4764,PAYLOAD,2023-10-29 22:15:12,15.08835638,0.0001704,53.2182,212.7856,100.0212,260.0972,0.00020083,2.909e-05,0.0,0 STARLINK-4764,1 53827U 22114K   23302.92723183  .00002909  00000-0  20083-3 0  9996,2 53827  53.2182 212.7856 0001704 100.0212 260.0972 15.08835638 62738,6917.894,95.438,540.938,538.58,0.0
53827.0,STARLINK-4764,PAYLOAD,2023-10-30 03:01:22,15.08843726,0.0001775,53.2183,211.8915,88.9099,271.2097,0.00033836,5.102e-05,0.0,0 STARLINK-4764,1 53827U 22114K   23303.12595075  .00005102  00000-0  33836-3 0  9994,2 53827  53.2183 211.8915 0001775  88.9099 271.2097 15.08843726 62223,6917.869,95.437,540.962,538.506,0.0
53827.0,STARLINK-4764,PAYLOAD,2023-10-30 22:06:00,15.08833478,0.000166,53.2169,208.3255,87.4188,272.6994,-6.5577e-05,-1.331e-05,0.0,0 STARLINK-4764,1 53827U 22114K   23303.92083456 -.00001331  00000-0 -65577-4 0  9997,2 53827  53.2169 208.3255 0001660  87.4188 272.6994 15.08833478 62887,6917.9,95.438,540.914,538.617,0.0
53827.0,STARLINK-4764,PAYLOAD,2023-10-31 21:56:47,15.08843131,0.0001656,53.2176,203.8622,80.9213,279.1967,0.00020455,2.969e-05,0.0,0 STARLINK-4764,1 53827U 22114K   23304.91443338  .00002969  00000-0  20455-3 0  9997,2 53827  53.2176 203.8622 0001656  80.9213 279.1967 15.08843131 63032,6917.871,95.437,540.881,538.59,0.0
53827.0,STARLINK-4764,PAYLOAD,2023-11-01 02:42:55,15.08859418,0.0001326,53.217,202.971,94.8488,265.2656,0.00031438,4.722e-05,0.0,0 STARLINK-4764,1 53827U 22114K   23305.11314364  .00004722  00000-0  31438-3 0  9998,2 53827  53.2170 202.9710 0001326  94.8488 265.2656 15.08859418 62525,6917.821,95.436,540.603,538.769,0.0
53827.0,STARLINK-4764,PAYLOAD,2023-11-01 10:39:51,15.08845713,0.0001404,53.217,201.4843,92.2529,267.8624,0.00010849,1.439e-05,0.0,0 STARLINK-4764,1 53827U 22114K   23305.44435014  .00001439  00000-0  10849-3 0  9995,2 53827  53.2170 201.4843 0001404  92.2529 267.8624 15.08845713 62572,6917.863,95.437,540.699,538.757,0.0
53827.0,STARLINK-4764,PAYLOAD,2023-11-01 21:47:33,15.08844879,0.0001495,53.2173,199.4027,87.053,273.0633,0.0001793,2.567e-05,0.0,0 STARLINK-4764,1 53827U 22114K   23305.90803033  .00002567  00000-0  17930-3 0  9997,2 53827  53.2173 199.4027 0001495  87.0530 273.0633 15.08844879 63188,6917.865,95.437,540.765,538.696,0.0
53827.0,STARLINK-4764,PAYLOAD,2023-11-02 10:30:38,15.08843656,0.0001472,53.2164,197.023,87.2971,272.8189,9.0306e-05,1.15e-05,0.0,0 STARLINK-4764,1 53827U 22114K   23306.43794982  .00001150  00000-0  90306-4 0  9994,2 53827  53.2164 197.0230 0001472  87.2971 272.8189 15.08843656 63268,6917.869,95.437,540.753,538.716,0.0
